{
  "type": "FeatureCollection",
  "features": [
    {
      "type": "Feature",
      "properties": {
        "norad_id": 31225,
        "name": "FENGYUN 1C DEB",
        "group": "fengyun-1c-debris",
        "lat": 5.28793791056636,
        "lon": 51.91472240672118,
        "alt_km": 771.7044539629405,
        "timestamp": "2025-12-05T14:45:15.580095+00:00",
        "meta_object_name": "FENGYUN 1C DEB",
        "meta_object_id": "1999-025BLF",
        "meta_epoch": "2025-12-04T17:19:13.838016",
        "meta_mean_motion": 14.17796425,
        "meta_eccentricity": 0.0088298,
        "meta_inclination": 98.9908,
        "meta_ra_of_asc_node": 51.8505,
        "meta_arg_of_pericenter": 14.6036,
        "meta_mean_anomaly": 115.1906,
        "meta_ephemeris_type": 0,
        "meta_classification_type": "U",
        "meta_norad_cat_id": 31225,
        "meta_element_set_no": 999,
        "meta_rev_at_epoch": 95708,
        "meta_bstar": 0.0025014,
        "meta_mean_motion_dot": 5.26e-05,
        "meta_mean_motion_ddot": 0,
        "tle_line1": "1 31225U 99025BLF 25338.72168794  .00005260  00000+0  25014-2 0  9999",
        "tle_line2": "2 31225  98.9908  51.8505 0088298  14.6036 115.1906 14.17796425957085"
      },
      "geometry": {
        "type": "Point",
        "coordinates": [
          51.91472240672118,
          5.28793791056636
        ]
      }
    },
    {
      "type": "Feature",
      "properties": {
        "norad_id": 31226,
        "name": "FENGYUN 1C DEB",
        "group": "fengyun-1c-debris",
        "lat": -55.93626157401031,
        "lon": -7.698665039460069,
        "alt_km": 802.6188676775473,
        "timestamp": "2025-12-05T14:45:15.580105+00:00",
        "meta_object_name": "FENGYUN 1C DEB",
        "meta_object_id": "1999-025BLG",
        "meta_epoch": "2025-12-03T17:34:33.337056",
        "meta_mean_motion": 14.26664209,
        "meta_eccentricity": 0.01263169,
        "meta_inclination": 98.3498,
        "meta_ra_of_asc_node": 337.9593,
        "meta_arg_of_pericenter": 222.6449,
        "meta_mean_anomaly": 136.4874,
        "meta_ephemeris_type": 0,
        "meta_classification_type": "U",
        "meta_norad_cat_id": 31226,
        "meta_element_set_no": 999,
        "meta_rev_at_epoch": 61925,
        "meta_bstar": 0.00052832093,
        "meta_mean_motion_dot": 1.347e-05,
        "meta_mean_motion_ddot": 0,
        "tle_line1": "1 31226U 99025BLG 25337.73233029  .00001347  00000+0  52832-3 0  9995",
        "tle_line2": "2 31226  98.3498 337.9593 0126316 222.6449 136.4874 14.26664209619250"
      },
      "geometry": {
        "type": "Point",
        "coordinates": [
          -7.698665039460069,
          -55.93626157401031
        ]
      }
    },
    {
      "type": "Feature",
      "properties": {
        "norad_id": 31228,
        "name": "FENGYUN 1C DEB",
        "group": "fengyun-1c-debris",
        "lat": 30.700549077316523,
        "lon": -114.10349140184114,
        "alt_km": 752.5157811620966,
        "timestamp": "2025-12-05T14:45:15.580115+00:00",
        "meta_object_name": "FENGYUN 1C DEB",
        "meta_object_id": "1999-025BLJ",
        "meta_epoch": "2025-12-04T17:01:27.663744",
        "meta_mean_motion": 14.36882199,
        "meta_eccentricity": 0.0079098,
        "meta_inclination": 98.8688,
        "meta_ra_of_asc_node": 250.2835,
        "meta_arg_of_pericenter": 109.356,
        "meta_mean_anomaly": 281.8764,
        "meta_ephemeris_type": 0,
        "meta_classification_type": "U",
        "meta_norad_cat_id": 31228,
        "meta_element_set_no": 999,
        "meta_rev_at_epoch": 97454,
        "meta_bstar": 0.0010598,
        "meta_mean_motion_dot": 3.203e-05,
        "meta_mean_motion_ddot": 0,
        "tle_line1": "1 31228U 99025BLJ 25338.70934796  .00003203  00000+0  10598-2 0  9999",
        "tle_line2": "2 31228  98.8688 250.2835 0079098 109.3560 281.8764 14.36882199974543"
      },
      "geometry": {
        "type": "Point",
        "coordinates": [
          -114.10349140184114,
          30.700549077316523
        ]
      }
    },
    {
      "type": "Feature",
      "properties": {
        "norad_id": 31229,
        "name": "FENGYUN 1C DEB",
        "group": "fengyun-1c-debris",
        "lat": -34.905809519407896,
        "lon": -131.36595328607706,
        "alt_km": 833.74482060225,
        "timestamp": "2025-12-05T14:45:15.580125+00:00",
        "meta_object_name": "FENGYUN 1C DEB",
        "meta_object_id": "1999-025BLK",
        "meta_epoch": "2025-12-02T21:33:26.156160",
        "meta_mean_motion": 14.21721225,
        "meta_eccentricity": 0.00524397,
        "meta_inclination": 98.8685,
        "meta_ra_of_asc_node": 52.159,
        "meta_arg_of_pericenter": 325.7559,
        "meta_mean_anomaly": 34.024,
        "meta_ephemeris_type": 0,
        "meta_classification_type": "U",
        "meta_norad_cat_id": 31229,
        "meta_element_set_no": 999,
        "meta_rev_at_epoch": 95944,
        "meta_bstar": 0.0016946422,
        "meta_mean_motion_dot": 3.733e-05,
        "meta_mean_motion_ddot": 0,
        "tle_line1": "1 31229U 99025BLK 25336.89821940  .00003733  00000+0  16946-2 0  9995",
        "tle_line2": "2 31229  98.8685  52.1590 0052439 325.7559  34.0240 14.21721225959445"
      },
      "geometry": {
        "type": "Point",
        "coordinates": [
          -131.36595328607706,
          -34.905809519407896
        ]
      }
    },
    {
      "type": "Feature",
      "properties": {
        "norad_id": 31231,
        "name": "FENGYUN 1C DEB",
        "group": "fengyun-1c-debris",
        "lat": -60.1617861347553,
        "lon": 153.85646727648663,
        "alt_km": 754.6084033491752,
        "timestamp": "2025-12-05T14:45:15.580136+00:00",
        "meta_object_name": "FENGYUN 1C DEB",
        "meta_object_id": "1999-025BLM",
        "meta_epoch": "2025-12-03T04:25:17.802048",
        "meta_mean_motion": 14.74747924,
        "meta_eccentricity": 0.0148073,
        "meta_inclination": 98.8603,
        "meta_ra_of_asc_node": 135.4173,
        "meta_arg_of_pericenter": 136.6139,
        "meta_mean_anomaly": 224.6836,
        "meta_ephemeris_type": 0,
        "meta_classification_type": "U",
        "meta_norad_cat_id": 31231,
        "meta_element_set_no": 999,
        "meta_rev_at_epoch": 62880,
        "meta_bstar": 0.0045464,
        "meta_mean_motion_dot": 0.00036415,
        "meta_mean_motion_ddot": 0,
        "tle_line1": "1 31231U 99025BLM 25337.18423382  .00036415  00000+0  45464-2 0  9999",
        "tle_line2": "2 31231  98.8603 135.4173 0148073 136.6139 224.6836 14.74747924628806"
      },
      "geometry": {
        "type": "Point",
        "coordinates": [
          153.85646727648663,
          -60.1617861347553
        ]
      }
    },
    {
      "type": "Feature",
      "properties": {
        "norad_id": 31234,
        "name": "FENGYUN 1C DEB",
        "group": "fengyun-1c-debris",
        "lat": 6.448036912151939,
        "lon": 154.81214990459682,
        "alt_km": 853.2239322412825,
        "timestamp": "2025-12-05T14:45:15.580146+00:00",
        "meta_object_name": "FENGYUN 1C DEB",
        "meta_object_id": "1999-025BLQ",
        "meta_epoch": "2025-12-03T05:38:41.279136",
        "meta_mean_motion": 14.08001275,
        "meta_eccentricity": 0.0072936,
        "meta_inclination": 98.7845,
        "meta_ra_of_asc_node": 331.4953,
        "meta_arg_of_pericenter": 253.9693,
        "meta_mean_anomaly": 105.3435,
        "meta_ephemeris_type": 0,
        "meta_classification_type": "U",
        "meta_norad_cat_id": 31234,
        "meta_element_set_no": 999,
        "meta_rev_at_epoch": 72586,
        "meta_bstar": 0.0003221,
        "meta_mean_motion_dot": 5.18e-06,
        "meta_mean_motion_ddot": 0,
        "tle_line1": "1 31234U 99025BLQ 25337.23519999  .00000518  00000+0  32210-3 0  9999",
        "tle_line2": "2 31234  98.7845 331.4953 0072936 253.9693 105.3435 14.08001275725865"
      },
      "geometry": {
        "type": "Point",
        "coordinates": [
          154.81214990459682,
          6.448036912151939
        ]
      }
    },
    {
      "type": "Feature",
      "properties": {
        "norad_id": 31235,
        "name": "FENGYUN 1C DEB",
        "group": "fengyun-1c-debris",
        "lat": -65.84607586326017,
        "lon": -71.21215574437912,
        "alt_km": 955.8769461185848,
        "timestamp": "2025-12-05T14:45:15.580156+00:00",
        "meta_object_name": "FENGYUN 1C DEB",
        "meta_object_id": "1999-025BLR",
        "meta_epoch": "2025-12-02T16:11:02.663232",
        "meta_mean_motion": 14.18412346,
        "meta_eccentricity": 0.01800212,
        "meta_inclination": 98.4719,
        "meta_ra_of_asc_node": 125.3899,
        "meta_arg_of_pericenter": 51.7016,
        "meta_mean_anomaly": 310.0196,
        "meta_ephemeris_type": 0,
        "meta_classification_type": "U",
        "meta_norad_cat_id": 31235,
        "meta_element_set_no": 999,
        "meta_rev_at_epoch": 63024,
        "meta_bstar": 0.0030847823,
        "meta_mean_motion_dot": 7.441e-05,
        "meta_mean_motion_ddot": 0,
        "tle_line1": "1 31235U 99025BLR 25336.67433638  .00007441  00000+0  30848-2 0  9998",
        "tle_line2": "2 31235  98.4719 125.3899 0180021  51.7016 310.0196 14.18412346630242"
      },
      "geometry": {
        "type": "Point",
        "coordinates": [
          -71.21215574437912,
          -65.84607586326017
        ]
      }
    }
  ]
}